[{"OBJECT_NAME":"BRITE-PL2 (HEWELIUSZ)","OBJECT_ID":"2014-049B","EPOCH":"2026-03-09T20:58:34.162464","MEAN_MOTION":14.94186201,"ECCENTRICITY":0.00154454,"INCLINATION":97.8982,"RA_OF_ASC_NODE":180.2053,"ARG_OF_PERICENTER":80.5248,"MEAN_ANOMALY":279.7716,"EPHEMERIS_TYPE":0,"CLASSIFICATION_TYPE":"U","NORAD_CAT_ID":40119,"ELEMENT_SET_NO":999,"REV_AT_EPOCH":62661,"BSTAR":0.00026097212,"MEAN_MOTION_DOT":2.742e-5,"MEAN_MOTION_DDOT":0},{"OBJECT_NAME":"STARLINK-5459","OBJECT_ID":"2023-021AT","EPOCH":"2026-03-09T16:26:52.969920","MEAN_MOTION":14.98337361,"ECCENTRICITY":0.00034326,"INCLINATION":70.0008,"RA_OF_ASC_NODE":164.4772,"ARG_OF_PERICENTER":272.8333,"MEAN_ANOMALY":87.2433,"EPHEMERIS_TYPE":0,"CLASSIFICATION_TYPE":"U","NORAD_CAT_ID":55669,"ELEMENT_SET_NO":999,"REV_AT_EPOCH":16927,"BSTAR":-4.705109e-5,"MEAN_MOTION_DOT":-6.55e-6,"MEAN_MOTION_DDOT":0}]
